CCSDS_OMM_VERS = 2.0
CREATION_DATE  = 
ORIGINATOR     = 

OBJECT_NAME    = SL-16 R/B
OBJECT_ID      = 1993-016B
CENTER_NAME    = EARTH
REF_FRAME      = TEME
TIME_SYSTEM    = UTC
MEAN_ELEMENT_THEORY = SGP/SGP4

EPOCH          = 2026-02-20T21:18:48.434976
MEAN_MOTION    = 14.15299941
ECCENTRICITY   = .00107233
INCLINATION    = 71.0043
RA_OF_ASC_NODE = 250.4712
ARG_OF_PERICENTER = 337.0997
MEAN_ANOMALY   = 22.9646

EPHEMERIS_TYPE = 0
CLASSIFICATION_TYPE = U
NORAD_CAT_ID   = 22566
ELEMENT_SET_NO = 999
REV_AT_EPOCH   = 69979
BSTAR          = -.20825866E-4
MEAN_MOTION_DOT = -.88E-6
MEAN_MOTION_DDOT = 0

CCSDS_OMM_VERS = 2.0
CREATION_DATE  = 
ORIGINATOR     = 

OBJECT_NAME    = COSMOS 2242
OBJECT_ID      = 1993-024A
CENTER_NAME    = EARTH
REF_FRAME      = TEME
TIME_SYSTEM    = UTC
MEAN_ELEMENT_THEORY = SGP/SGP4

EPOCH          = 2026-02-20T17:15:54.285120
MEAN_MOTION    = 14.96474644
ECCENTRICITY   = .00166286
INCLINATION    = 82.5171
RA_OF_ASC_NODE = 282.9504
ARG_OF_PERICENTER = 7.8071
MEAN_ANOMALY   = 352.3407

EPHEMERIS_TYPE = 0
CLASSIFICATION_TYPE = U
NORAD_CAT_ID   = 22626
ELEMENT_SET_NO = 999
REV_AT_EPOCH   = 77785
BSTAR          = .14254529E-3
MEAN_MOTION_DOT = .1648E-4
MEAN_MOTION_DDOT = 0

CCSDS_OMM_VERS = 2.0
CREATION_DATE  = 
ORIGINATOR     = 

OBJECT_NAME    = SL-16 R/B
OBJECT_ID      = 1993-059B
CENTER_NAME    = EARTH
REF_FRAME      = TEME
TIME_SYSTEM    = UTC
MEAN_ELEMENT_THEORY = SGP/SGP4

EPOCH          = 2026-02-20T09:30:34.520832
MEAN_MOTION    = 14.17227405
ECCENTRICITY   = .00192041
INCLINATION    = 70.9895
RA_OF_ASC_NODE = 47.5944
ARG_OF_PERICENTER = 240.3858
MEAN_ANOMALY   = 119.5353

EPHEMERIS_TYPE = 0
CLASSIFICATION_TYPE = U
NORAD_CAT_ID   = 22803
ELEMENT_SET_NO = 999
REV_AT_EPOCH   = 67708
BSTAR          = .13863726E-4
MEAN_MOTION_DOT = -.2E-6
MEAN_MOTION_DDOT = 0

CCSDS_OMM_VERS = 2.0
CREATION_DATE  = 
ORIGINATOR     = 

OBJECT_NAME    = ARIANE 40 R/B
OBJECT_ID      = 1993-061H
CENTER_NAME    = EARTH
REF_FRAME      = TEME
TIME_SYSTEM    = UTC
MEAN_ELEMENT_THEORY = SGP/SGP4

EPOCH          = 2026-02-20T19:11:20.502240
MEAN_MOTION    = 14.32851205
ECCENTRICITY   = .0010052
INCLINATION    = 98.4954
RA_OF_ASC_NODE = 121.0175
ARG_OF_PERICENTER = 339.7000
MEAN_ANOMALY   = 20.3783

EPHEMERIS_TYPE = 0
CLASSIFICATION_TYPE = U
NORAD_CAT_ID   = 22830
ELEMENT_SET_NO = 999
REV_AT_EPOCH   = 69168
BSTAR          = .78885474E-4
MEAN_MOTION_DOT = .172E-5
MEAN_MOTION_DDOT = 0

CCSDS_OMM_VERS = 2.0
CREATION_DATE  = 
ORIGINATOR     = 

OBJECT_NAME    = COSMOS 2278
OBJECT_ID      = 1994-023A
CENTER_NAME    = EARTH
REF_FRAME      = TEME
TIME_SYSTEM    = UTC
MEAN_ELEMENT_THEORY = SGP/SGP4

EPOCH          = 2026-02-20T20:04:03.807552
MEAN_MOTION    = 14.14366517
ECCENTRICITY   = .00071649
INCLINATION    = 71.0514
RA_OF_ASC_NODE = 210.3562
ARG_OF_PERICENTER = 46.9099
MEAN_ANOMALY   = 313.2623

EPHEMERIS_TYPE = 0
CLASSIFICATION_TYPE = U
NORAD_CAT_ID   = 23087
ELEMENT_SET_NO = 999
REV_AT_EPOCH   = 64242
BSTAR          = .17308836E-3
MEAN_MOTION_DOT = .284E-5
MEAN_MOTION_DDOT = 0

CCSDS_OMM_VERS = 2.0
CREATION_DATE  = 
ORIGINATOR     = 

OBJECT_NAME    = SL-16 R/B
OBJECT_ID      = 1994-023B
CENTER_NAME    = EARTH
REF_FRAME      = TEME
TIME_SYSTEM    = UTC
MEAN_ELEMENT_THEORY = SGP/SGP4

EPOCH          = 2026-02-20T12:52:59.337696
MEAN_MOTION    = 14.15010206
ECCENTRICITY   = .00049178
INCLINATION    = 70.9992
RA_OF_ASC_NODE = 106.9126
ARG_OF_PERICENTER = 301.4174
MEAN_ANOMALY   = 58.6467

EPHEMERIS_TYPE = 0
CLASSIFICATION_TYPE = U
NORAD_CAT_ID   = 23088
ELEMENT_SET_NO = 999
REV_AT_EPOCH   = 64366
BSTAR          = .18009155E-3
MEAN_MOTION_DOT = .301E-5
MEAN_MOTION_DDOT = 0

CCSDS_OMM_VERS = 2.0
CREATION_DATE  = 
ORIGINATOR     = 

OBJECT_NAME    = SL-16 R/B
OBJECT_ID      = 1994-074B
CENTER_NAME    = EARTH
REF_FRAME      = TEME
TIME_SYSTEM    = UTC
MEAN_ELEMENT_THEORY = SGP/SGP4

EPOCH          = 2026-02-20T16:35:27.899232
MEAN_MOTION    = 14.79386148
ECCENTRICITY   = .0005126
INCLINATION    = 97.7133
RA_OF_ASC_NODE = 83.1956
ARG_OF_PERICENTER = 278.4898
MEAN_ANOMALY   = 195.4153

EPHEMERIS_TYPE = 0
CLASSIFICATION_TYPE = U
NORAD_CAT_ID   = 23343
ELEMENT_SET_NO = 999
REV_AT_EPOCH   = 68473
BSTAR          = .59449961E-4
MEAN_MOTION_DOT = .394E-5
MEAN_MOTION_DDOT = 0

CCSDS_OMM_VERS = 2.0
CREATION_DATE  = 
ORIGINATOR     = 

OBJECT_NAME    = SL-16 R/B
OBJECT_ID      = 1994-077B
CENTER_NAME    = EARTH
REF_FRAME      = TEME
TIME_SYSTEM    = UTC
MEAN_ELEMENT_THEORY = SGP/SGP4

EPOCH          = 2026-02-20T09:12:37.067904
MEAN_MOTION    = 14.15563553
ECCENTRICITY   = .00038792
INCLINATION    = 70.9837
RA_OF_ASC_NODE = 28.8952
ARG_OF_PERICENTER = 229.1772
MEAN_ANOMALY   = 130.9014

EPHEMERIS_TYPE = 0
CLASSIFICATION_TYPE = U
NORAD_CAT_ID   = 23405
ELEMENT_SET_NO = 999
REV_AT_EPOCH   = 61378
BSTAR          = .67912585E-4
MEAN_MOTION_DOT = .85E-6
MEAN_MOTION_DDOT = 0

CCSDS_OMM_VERS = 2.0
CREATION_DATE  = 
ORIGINATOR     = 

OBJECT_NAME    = ARIANE 40+ R/B
OBJECT_ID      = 1995-021B
CENTER_NAME    = EARTH
REF_FRAME      = TEME
TIME_SYSTEM    = UTC
MEAN_ELEMENT_THEORY = SGP/SGP4

EPOCH          = 2026-02-20T19:11:39.625152
MEAN_MOTION    = 14.39759053
ECCENTRICITY   = .00068228
INCLINATION    = 98.4533
RA_OF_ASC_NODE = 123.5082
ARG_OF_PERICENTER = 183.2763
MEAN_ANOMALY   = 286.8266

EPHEMERIS_TYPE = 0
CLASSIFICATION_TYPE = U
NORAD_CAT_ID   = 23561
ELEMENT_SET_NO = 999
REV_AT_EPOCH   = 61681
BSTAR          = .92252464E-4
MEAN_MOTION_DOT = .246E-5
MEAN_MOTION_DDOT = 0

CCSDS_OMM_VERS = 2.0
CREATION_DATE  = 
ORIGINATOR     = 

OBJECT_NAME    = SL-16 R/B
OBJECT_ID      = 1995-058B
CENTER_NAME    = EARTH
REF_FRAME      = TEME
TIME_SYSTEM    = UTC
MEAN_ELEMENT_THEORY = SGP/SGP4

EPOCH          = 2026-02-20T21:13:45.982272
MEAN_MOTION    = 14.15495297
ECCENTRICITY   = .0011401
INCLINATION    = 71.0200
RA_OF_ASC_NODE = 215.5350
ARG_OF_PERICENTER = 155.0467
MEAN_ANOMALY   = 205.1210

EPHEMERIS_TYPE = 0
CLASSIFICATION_TYPE = U
NORAD_CAT_ID   = 23705
ELEMENT_SET_NO = 999
REV_AT_EPOCH   = 56547
BSTAR          = -.76390279E-4
MEAN_MOTION_DOT = -.197E-5
MEAN_MOTION_DDOT = 0

CCSDS_OMM_VERS = 2.0
CREATION_DATE  = 
ORIGINATOR     = 

OBJECT_NAME    = SL-16 R/B
OBJECT_ID      = 1996-051B
CENTER_NAME    = EARTH
REF_FRAME      = TEME
TIME_SYSTEM    = UTC
MEAN_ELEMENT_THEORY = SGP/SGP4

EPOCH          = 2026-02-20T21:15:14.950944
MEAN_MOTION    = 14.12410862
ECCENTRICITY   = .00166149
INCLINATION    = 70.7578
RA_OF_ASC_NODE = 210.8054
ARG_OF_PERICENTER = 172.2336
MEAN_ANOMALY   = 187.9044

EPHEMERIS_TYPE = 0
CLASSIFICATION_TYPE = U
NORAD_CAT_ID   = 24298
ELEMENT_SET_NO = 999
REV_AT_EPOCH   = 51927
BSTAR          = .73626586E-4
MEAN_MOTION_DOT = .87E-6
MEAN_MOTION_DDOT = 0

CCSDS_OMM_VERS = 2.0
CREATION_DATE  = 
ORIGINATOR     = 

OBJECT_NAME    = ORBVIEW 2 (SEASTAR)
OBJECT_ID      = 1997-037A
CENTER_NAME    = EARTH
REF_FRAME      = TEME
TIME_SYSTEM    = UTC
MEAN_ELEMENT_THEORY = SGP/SGP4

EPOCH          = 2026-02-20T09:51:07.090272
MEAN_MOTION    = 14.35480186
ECCENTRICITY   = .00031752
INCLINATION    = 98.8535
RA_OF_ASC_NODE = 215.2671
ARG_OF_PERICENTER = 106.8920
MEAN_ANOMALY   = 253.2613

EPHEMERIS_TYPE = 0
CLASSIFICATION_TYPE = U
NORAD_CAT_ID   = 24883
ELEMENT_SET_NO = 999
REV_AT_EPOCH   = 50599
BSTAR          = .90928179E-4
MEAN_MOTION_DOT = .215E-5
MEAN_MOTION_DDOT = 0

