SL-16 R/B               
1 22566U 93016B   26051.88806059 -.00000088  00000+0 -20826-4 0  9997
2 22566  71.0043 250.4712 0010723 337.0997  22.9646 14.15299941699794
COSMOS 2242             
1 22626U 93024A   26051.71937830  .00001648  00000+0  14255-3 0  9996
2 22626  82.5171 282.9504 0016628   7.8071 352.3407 14.96474644777857
SL-16 R/B               
1 22803U 93059B   26051.39623288 -.00000020  00000+0  13864-4 0  9994
2 22803  70.9895  47.5944 0019204 240.3858 119.5353 14.17227405677082
ARIANE 40 R/B           
1 22830U 93061H   26051.79954285  .00000172  00000+0  78885-4 0  9996
2 22830  98.4954 121.0175 0010052 339.7000  20.3783 14.32851205691687
COSMOS 2278             
1 23087U 94023A   26051.83615518  .00000284  00000+0  17309-3 0  9995
2 23087  71.0514 210.3562 0007164  46.9099 313.2623 14.14366517642420
SL-16 R/B               
1 23088U 94023B   26051.53679789  .00000301  00000+0  18009-3 0  9991
2 23088  70.9992 106.9126 0004917 301.4174  58.6467 14.15010206643666
SL-16 R/B               
1 23343U 94074B   26051.69129513  .00000394  00000+0  59450-4 0  9991
2 23343  97.7133  83.1956 0005126 278.4898 195.4153 14.79386148684736
SL-16 R/B               
1 23405U 94077B   26051.38376236  .00000085  00000+0  67913-4 0  9995
2 23405  70.9837  28.8952 0003879 229.1772 130.9014 14.15563553613782
ARIANE 40+ R/B          
1 23561U 95021B   26051.79976418  .00000246  00000+0  92252-4 0  9994
2 23561  98.4533 123.5082 0006822 183.2763 286.8266 14.39759053616816
SL-16 R/B               
1 23705U 95058B   26051.88455998 -.00000197  00000+0 -76390-4 0  9991
2 23705  71.0200 215.5350 0011401 155.0467 205.1210 14.15495297565470
SL-16 R/B               
1 24298U 96051B   26051.88558971  .00000087  00000+0  73627-4 0  9994
2 24298  70.7578 210.8054 0016614 172.2336 187.9044 14.12410862519279
ORBVIEW 2 (SEASTAR)     
1 24883U 97037A   26051.41049873  .00000215  00000+0  90928-4 0  9990
2 24883  98.8535 215.2671 0003175 106.8920 253.2613 14.35480186505991
